CELESTIS-02             
1 25160U 98007D   17284.91495163 -.00000059  00000-0  31317-4 0  9992
2 25160 107.9535  68.4102 0062196 161.0835 321.4412 14.21476834 19923
CELESTIS-03             
1 26034U 99070C   17284.88886477  .00002527  00000-0  17192-3 0  9997
2 26034  98.3138 127.9412 0014141 127.0967 233.1554 15.07300061963013
